{"type":"FeatureCollection","features":[{"type":"Feature","properties":{"DIST_NAME":"ANUGUL","BLOCK_NAME":"ATHAMALLIK","MED_CATEGO":"PHC(N)","LOCATION":"Thakuragarh","INST":"PHC(N) Thakuragarh"},"geometry":{"type":"Point","coordinates":[84.63722229003906,20.81783103942871]}},{"type":"Feature","properties":{"DIST_NAME":"ANUGUL","BLOCK_NAME":"ATHAMALLIK","MED_CATEGO":"CHC","LOCATION":"Madhapur","INST":"CHC Madhapur"},"geometry":{"type":"Point","coordinates":[84.41999240441059,20.78354170062674]}},{"type":"Feature","properties":{"DIST_NAME":"ANUGUL","BLOCK_NAME":"ATHAMALLIK","MED_CATEGO":"SDH","LOCATION":"Athamallik","INST":"SDH Athamallik"},"geometry":{"type":"Point","coordinates":[84.54061889648438,20.71814727783203]}},{"type":"Feature","properties":{"DIST_NAME":"ANUGUL","BLOCK_NAME":"ATHAMALLIK","MED_CATEGO":"PHC(N)","LOCATION":"Pataka","INST":"PHC(N) Pataka"},"geometry":{"type":"Point","coordinates":[84.6302384184099,20.6544230526673]}},{"type":"Feature","properties":{"DIST_NAME":"ANUGUL","BLOCK_NAME":"ATHAMALLIK","MED_CATEGO":"PHC(N)","LOCATION":"Paikasahi","INST":"PHC(N) Paikasahi"},"geometry":{"type":"Point","coordinates":[84.75886535644531,20.82686996459961]}}]}